start=new Date('2022-11-18T00:00:00.000Z').valueOf();
sats=[{"MEAN_MOTION":"15.06401059","NORAD_CAT_ID":"45088","BSTAR":"0.00017472000000","ARG_OF_PERICENTER":"58.9963","OBJECT_ID":"2020-006AW","SITE":"AFETR","OBJECT_NAME":"STARLINK-1183","PERIOD":"95.592","REV_AT_EPOCH":"15489","TLE_LINE2":"2 45088  53.0543 271.1749 0001778  58.9963 301.1200 15.06401059154896","ECCENTRICITY":"0.00017780","MEAN_ANOMALY":"301.1200","EPHEMERIS_TYPE":"0","TLE_LINE1":"1 45088U 20006AW  22321.32319570  .00002322  00000-0  17472-3 0  9996","CLASSIFICATION_TYPE":"U","ELEMENT_SET_NO":"999","EPOCH":"2022-11-17T07:45:24.108480","FILE":"3661693","OBJECT_TYPE":"PAYLOAD","GP_ID":"218062991","APOAPSIS":"548.442","REF_FRAME":"TEME","COUNTRY_CODE":"US","SEMIMAJOR_AXIS":"6925.345","MEAN_MOTION_DOT":"0.00002322","CENTER_NAME":"EARTH","DECAY_DATE":null,"LAUNCH_DATE":"2020-01-29","TIME_SYSTEM":"UTC","PERIAPSIS":"545.979","RCS_SIZE":"LARGE","MEAN_ELEMENT_THEORY":"SGP4","RA_OF_ASC_NODE":"271.1749","INCLINATION":"53.0543","MEAN_MOTION_DDOT":"0.0000000000000"},{"PERIOD":"95.593","OBJECT_ID":"2020-006AX","ARG_OF_PERICENTER":"68.5849","OBJECT_NAME":"STARLINK-1136","SITE":"AFETR","BSTAR":"-0.00002888600000","MEAN_MOTION":"15.06392969","NORAD_CAT_ID":"45089","TLE_LINE2":"2 45089  53.0559 271.5434 0001700  68.5849 291.5322 15.06392969154890","REV_AT_EPOCH":"15489","GP_ID":"218063223","APOAPSIS":"548.412","OBJECT_TYPE":"PAYLOAD","REF_FRAME":"TEME","EPOCH":"2022-11-17T06:20:30.824160","FILE":"3661693","MEAN_ANOMALY":"291.5322","ECCENTRICITY":"0.00017000","TLE_LINE1":"1 45089U 20006AX  22321.26424565 -.00000712  00000-0 -28886-4 0  9996","CLASSIFICATION_TYPE":"U","ELEMENT_SET_NO":"999","EPHEMERIS_TYPE":"0","MEAN_MOTION_DDOT":"0.0000000000000","INCLINATION":"53.0559","MEAN_ELEMENT_THEORY":"SGP4","RA_OF_ASC_NODE":"271.5434","PERIAPSIS":"546.058","RCS_SIZE":"LARGE","MEAN_MOTION_DOT":"-0.00000712","COUNTRY_CODE":"US","SEMIMAJOR_AXIS":"6925.370","TIME_SYSTEM":"UTC","DECAY_DATE":null,"LAUNCH_DATE":"2020-01-29","CENTER_NAME":"EARTH"},{"OBJECT_TYPE":"PAYLOAD","APOAPSIS":"548.275","GP_ID":"218061492","REF_FRAME":"TEME","EPOCH":"2022-11-17T13:44:58.696512","FILE":"3661693","MEAN_ANOMALY":"297.8835","ECCENTRICITY":"0.00015190","EPHEMERIS_TYPE":"0","ELEMENT_SET_NO":"999","TLE_LINE1":"1 45090U 20006AY  22321.57290158  .00001440  00000-0  11554-3 0  9991","CLASSIFICATION_TYPE":"U","INCLINATION":"53.0541","MEAN_MOTION_DDOT":"0.0000000000000","MEAN_ELEMENT_THEORY":"SGP4","RA_OF_ASC_NODE":"270.0650","PERIAPSIS":"546.171","RCS_SIZE":"LARGE","COUNTRY_CODE":"US","SEMIMAJOR_AXIS":"6925.358","MEAN_MOTION_DOT":"0.00001440","CENTER_NAME":"EARTH","DECAY_DATE":null,"LAUNCH_DATE":"2020-01-29","TIME_SYSTEM":"UTC","PERIOD":"95.592","ARG_OF_PERICENTER":"62.2308","OBJECT_ID":"2020-006AY","SITE":"AFETR","OBJECT_NAME":"STARLINK-1176","BSTAR":"0.00011554000000","MEAN_MOTION":"15.06397064","NORAD_CAT_ID":"45090","TLE_LINE2":"2 45090  53.0541 270.0650 0001519  62.2308 297.8835 15.06397064154930","REV_AT_EPOCH":"15493"},{"MEAN_ANOMALY":"301.5380","ECCENTRICITY":"0.00017320","CLASSIFICATION_TYPE":"U","TLE_LINE1":"1 45092U 20006BA  22321.34900174  .00000472  00000-0  50611-4 0  9996","ELEMENT_SET_NO":"999","EPHEMERIS_TYPE":"0","GP_ID":"218061742","APOAPSIS":"548.430","OBJECT_TYPE":"PAYLOAD","REF_FRAME":"TEME","EPOCH":"2022-11-17T08:22:33.750336","FILE":"3661693","PERIAPSIS":"546.031","RCS_SIZE":"LARGE","MEAN_MOTION_DOT":"0.00000472","SEMIMAJOR_AXIS":"6925.365","COUNTRY_CODE":"US","DECAY_DATE":null,"CENTER_NAME":"EARTH","LAUNCH_DATE":"2020-01-29","TIME_SYSTEM":"UTC","MEAN_MOTION_DDOT":"0.0000000000000","INCLINATION":"53.0536","MEAN_ELEMENT_THEORY":"SGP4","RA_OF_ASC_NODE":"271.0790","BSTAR":"0.00005061100000","MEAN_MOTION":"15.06394543","NORAD_CAT_ID":"45092","PERIOD":"95.592","OBJECT_ID":"2020-006BA","ARG_OF_PERICENTER":"58.5778","OBJECT_NAME":"STARLINK-1137","SITE":"AFETR","TLE_LINE2":"2 45092  53.0536 271.0790 0001732  58.5778 301.5380 15.06394543154890","REV_AT_EPOCH":"15489"},{"REF_FRAME":"TEME","OBJECT_TYPE":"PAYLOAD","APOAPSIS":"548.449","GP_ID":"218092668","FILE":"3661914","EPOCH":"2022-11-17T16:14:57.157152","EPHEMERIS_TYPE":"0","ELEMENT_SET_NO":"999","TLE_LINE1":"1 45093U 20006BB  22321.67705043  .00000953  00000-0  82910-4 0  9992","CLASSIFICATION_TYPE":"U","MEAN_ANOMALY":"310.6386","ECCENTRICITY":"0.00017600","INCLINATION":"53.0540","MEAN_MOTION_DDOT":"0.0000000000000","RA_OF_ASC_NODE":"269.6023","MEAN_ELEMENT_THEORY":"SGP4","RCS_SIZE":"LARGE","PERIAPSIS":"546.011","DECAY_DATE":null,"CENTER_NAME":"EARTH","LAUNCH_DATE":"2020-01-29","TIME_SYSTEM":"UTC","COUNTRY_CODE":"US","SEMIMAJOR_AXIS":"6925.365","MEAN_MOTION_DOT":"0.00000953","PERIOD":"95.592","SITE":"AFETR","OBJECT_NAME":"STARLINK-1142","ARG_OF_PERICENTER":"49.4756","OBJECT_ID":"2020-006BB","BSTAR":"0.00008291000000","NORAD_CAT_ID":"45093","MEAN_MOTION":"15.06394597","REV_AT_EPOCH":"15494","TLE_LINE2":"2 45093  53.0540 269.6023 0001760  49.4756 310.6386 15.06394597154946"},{"APOAPSIS":"548.434","GP_ID":"218062724","OBJECT_TYPE":"PAYLOAD","REF_FRAME":"TEME","EPOCH":"2022-11-17T07:01:34.768128","FILE":"3661693","MEAN_ANOMALY":"308.1025","ECCENTRICITY":"0.00017470","CLASSIFICATION_TYPE":"U","TLE_LINE1":"1 45094U 20006BC  22321.29276352  .00001329  00000-0  10814-3 0  9998","ELEMENT_SET_NO":"999","EPHEMERIS_TYPE":"0","MEAN_MOTION_DDOT":"0.0000000000000","INCLINATION":"53.0557","MEAN_ELEMENT_THEORY":"SGP4","RA_OF_ASC_NODE":"271.3147","PERIAPSIS":"546.014","RCS_SIZE":"LARGE","MEAN_MOTION_DOT":"0.00001329","SEMIMAJOR_AXIS":"6925.359","COUNTRY_CODE":"US","DECAY_DATE":null,"TIME_SYSTEM":"UTC","LAUNCH_DATE":"2020-01-29","CENTER_NAME":"EARTH","PERIOD":"95.592","OBJECT_ID":"2020-006BC","ARG_OF_PERICENTER":"52.0122","OBJECT_NAME":"STARLINK-1146","SITE":"AFETR","BSTAR":"0.00010814000000","MEAN_MOTION":"15.06396551","NORAD_CAT_ID":"45094","TLE_LINE2":"2 45094  53.0557 271.3147 0001747  52.0122 308.1025 15.06396551154892","REV_AT_EPOCH":"15489"},{"REV_AT_EPOCH":"15490","TLE_LINE2":"2 45095  53.0567 270.9942 0002132  46.4076 313.7090 15.06394485154906","OBJECT_ID":"2020-006BD","ARG_OF_PERICENTER":"46.4076","OBJECT_NAME":"STARLINK-1147","SITE":"AFETR","PERIOD":"95.592","MEAN_MOTION":"15.06394485","NORAD_CAT_ID":"45095","BSTAR":"0.00006008300000","MEAN_ELEMENT_THEORY":"SGP4","RA_OF_ASC_NODE":"270.9942","MEAN_MOTION_DDOT":"0.0000000000000","INCLINATION":"53.0567","MEAN_MOTION_DOT":"0.00000613","SEMIMAJOR_AXIS":"6925.365","COUNTRY_CODE":"US","CENTER_NAME":"EARTH","DECAY_DATE":null,"LAUNCH_DATE":"2020-01-29","TIME_SYSTEM":"UTC","PERIAPSIS":"545.754","RCS_SIZE":"LARGE","EPOCH":"2022-11-17T08:42:26.062560","FILE":"3661693","GP_ID":"218061991","APOAPSIS":"548.707","OBJECT_TYPE":"PAYLOAD","REF_FRAME":"TEME","MEAN_ANOMALY":"313.7090","ECCENTRICITY":"0.00021320","CLASSIFICATION_TYPE":"U","TLE_LINE1":"1 45095U 20006BD  22321.36280165  .00000613  00000-0  60083-4 0  9993","ELEMENT_SET_NO":"999","EPHEMERIS_TYPE":"0"},{"PERIAPSIS":"545.968","RCS_SIZE":"LARGE","MEAN_MOTION_DOT":"0.00001555","COUNTRY_CODE":"US","SEMIMAJOR_AXIS":"6925.337","DECAY_DATE":null,"LAUNCH_DATE":"2020-01-29","CENTER_NAME":"EARTH","TIME_SYSTEM":"UTC","MEAN_MOTION_DDOT":"0.0000000000000","INCLINATION":"53.0564","MEAN_ELEMENT_THEORY":"SGP4","RA_OF_ASC_NODE":"271.3313","MEAN_ANOMALY":"308.0065","ECCENTRICITY":"0.00017820","TLE_LINE1":"1 45096U 20006BE  22321.29002104  .00001555  00000-0  12323-3 0  9990","ELEMENT_SET_NO":"999","CLASSIFICATION_TYPE":"U","EPHEMERIS_TYPE":"0","APOAPSIS":"548.437","GP_ID":"218062240","OBJECT_TYPE":"PAYLOAD","REF_FRAME":"TEME","EPOCH":"2022-11-17T06:57:37.817856","FILE":"3661693","TLE_LINE2":"2 45096  53.0564 271.3313 0001782  52.1085 308.0065 15.06403629154882","REV_AT_EPOCH":"15488","BSTAR":"0.00012323000000","MEAN_MOTION":"15.06403629","NORAD_CAT_ID":"45096","PERIOD":"95.592","OBJECT_ID":"2020-006BE","ARG_OF_PERICENTER":"52.1085","OBJECT_NAME":"STARLINK-1152","SITE":"AFETR"},{"FILE":"3661914","EPOCH":"2022-11-17T16:04:20.178336","REF_FRAME":"TEME","OBJECT_TYPE":"PAYLOAD","APOAPSIS":"548.468","GP_ID":"218092168","EPHEMERIS_TYPE":"0","TLE_LINE1":"1 45098U 20006BG  22321.66967799  .00003954  00000-0  28418-3 0  9990","CLASSIFICATION_TYPE":"U","ELEMENT_SET_NO":"999","ECCENTRICITY":"0.00018300","MEAN_ANOMALY":"299.5498","RA_OF_ASC_NODE":"269.6275","MEAN_ELEMENT_THEORY":"SGP4","INCLINATION":"53.0547","MEAN_MOTION_DDOT":"0.0000000000000","DECAY_DATE":null,"CENTER_NAME":"EARTH","LAUNCH_DATE":"2020-01-29","TIME_SYSTEM":"UTC","COUNTRY_CODE":"US","SEMIMAJOR_AXIS":"6925.335","MEAN_MOTION_DOT":"0.00003954","RCS_SIZE":"LARGE","PERIAPSIS":"545.933","SITE":"AFETR","OBJECT_NAME":"STARLINK-1184","ARG_OF_PERICENTER":"60.5673","OBJECT_ID":"2020-006BG","PERIOD":"95.592","NORAD_CAT_ID":"45098","MEAN_MOTION":"15.06404367","BSTAR":"0.00028418000000","REV_AT_EPOCH":"15494","TLE_LINE2":"2 45098  53.0547 269.6275 0001830  60.5673 299.5498 15.06404367154943"},{"PERIOD":"95.593","ARG_OF_PERICENTER":"56.7364","OBJECT_ID":"2020-006BH","SITE":"AFETR","OBJECT_NAME":"STARLINK-1186","BSTAR":"-0.00000089599000","MEAN_MOTION":"15.06388455","NORAD_CAT_ID":"45099","REV_AT_EPOCH":"15489","TLE_LINE2":"2 45099  53.0535 271.2800 0001846  56.7364 303.3802 15.06388455154891","OBJECT_TYPE":"PAYLOAD","GP_ID":"218063224","APOAPSIS":"548.527","REF_FRAME":"TEME","EPOCH":"2022-11-17T07:18:53.105184","FILE":"3661693","ECCENTRICITY":"0.00018460","MEAN_ANOMALY":"303.3802","EPHEMERIS_TYPE":"0","TLE_LINE1":"1 45099U 20006BH  22321.30478131 -.00000295  00000-0 -89599-6 0  9996","ELEMENT_SET_NO":"999","CLASSIFICATION_TYPE":"U","INCLINATION":"53.0535","MEAN_MOTION_DDOT":"0.0000000000000","MEAN_ELEMENT_THEORY":"SGP4","RA_OF_ASC_NODE":"271.2800","PERIAPSIS":"545.971","RCS_SIZE":"LARGE","COUNTRY_CODE":"US","SEMIMAJOR_AXIS":"6925.384","MEAN_MOTION_DOT":"-0.00000295","DECAY_DATE":null,"CENTER_NAME":"EARTH","LAUNCH_DATE":"2020-01-29","TIME_SYSTEM":"UTC"}];
